[{"OBJECT_NAME":"STARLINK-4355","OBJECT_ID":"2022-077F","EPOCH":"2026-03-09T12:26:42.033120","MEAN_MOTION":15.05643548,"ECCENTRICITY":0.00014098,"INCLINATION":97.603,"RA_OF_ASC_NODE":251.082,"ARG_OF_PERICENTER":87.056,"MEAN_ANOMALY":273.0828,"EPHEMERIS_TYPE":0,"CLASSIFICATION_TYPE":"U","NORAD_CAT_ID":53048,"ELEMENT_SET_NO":999,"REV_AT_EPOCH":20095,"BSTAR":1.3313083e-5,"MEAN_MOTION_DOT":1.31e-6,"MEAN_MOTION_DDOT":0},{"OBJECT_NAME":"LEMUR-2-LLOYD","OBJECT_ID":"2024-149DP","EPOCH":"2026-03-09T11:02:25.245024","MEAN_MOTION":15.07168338,"ECCENTRICITY":0.00051866,"INCLINATION":97.678,"RA_OF_ASC_NODE":149.6779,"ARG_OF_PERICENTER":125.6096,"MEAN_ANOMALY":234.5616,"EPHEMERIS_TYPE":0,"CLASSIFICATION_TYPE":"U","NORAD_CAT_ID":60577,"ELEMENT_SET_NO":999,"REV_AT_EPOCH":8536,"BSTAR":0.00080142638,"MEAN_MOTION_DOT":0.00012007,"MEAN_MOTION_DDOT":0}]
