STARLINK-4355           
1 53048U 22077F   26068.51854205  .00000131  00000+0  13313-4 0  9999
2 53048  97.6030 251.0820 0001409  87.0560 273.0828 15.05643548200952
LEMUR-2-LLOYD           
1 60577U 24149DP  26068.46001441  .00012007  00000+0  80143-3 0  9995
2 60577  97.6780 149.6779 0005186 125.6096 234.5616 15.07168338 85367
